{"type": "FeatureCollection", "features": [ {"type": "Feature", "properties": {"norad_id": 34400, "name": "COSMOS 2251 DEB", "group": "cosmos-2251-debris", "lat": -72.136666315669, "lon": -82.87160369848343, "alt_km": 416.7227197172697, "timestamp": "2025-12-07T22:37:43.476202+00:00", "meta": {"OBJECT_NAME": "COSMOS 2251 DEB", "OBJECT_ID": "1993-036QR", "EPOCH": "2025-12-07T02:55:13.341216", "MEAN_MOTION": 15.50411557, "ECCENTRICITY": 0.00066722, "INCLINATION": 73.967, "RA_OF_ASC_NODE": 35.7746, "ARG_OF_PERICENTER": 270.4783, "MEAN_ANOMALY": 89.5665, "EPHEMERIS_TYPE": 0, "CLASSIFICATION_TYPE": "U", "NORAD_CAT_ID": 34400, "ELEMENT_SET_NO": 999, "REV_AT_EPOCH": 89887, "BSTAR": 0.0043430729, "MEAN_MOTION_DOT": 0.00255464, "MEAN_MOTION_DDOT": 0}, "tle": {"line1": "1 34400U 93036QR  25341.12168219  .00255464  00000+0  43431-2 0  9999", "line2": "2 34400  73.9670  35.7746 0006672 270.4783  89.5665 15.50411557898872"}}, "geometry": {"type": "Point", "coordinates": [-82.87160369848343, -72.136666315669]}}, {"type": "Feature", "properties": {"norad_id": 34409, "name": "COSMOS 2251 DEB", "group": "cosmos-2251-debris", "lat": -8.911698901044357, "lon": -46.619489042322876, "alt_km": 660.4459739564527, "timestamp": "2025-12-07T22:37:43.476212+00:00", "meta": {"OBJECT_NAME": "COSMOS 2251 DEB", "OBJECT_ID": "1993-036RA", "EPOCH": "2025-12-07T04:37:25.927680", "MEAN_MOTION": 14.58005767, "ECCENTRICITY": 0.00796074, "INCLINATION": 74.0628, "RA_OF_ASC_NODE": 317.3728, "ARG_OF_PERICENTER": 33.2017, "MEAN_ANOMALY": 342.1701, "EPHEMERIS_TYPE": 0, "CLASSIFICATION_TYPE": "U", "NORAD_CAT_ID": 34409, "ELEMENT_SET_NO": 999, "REV_AT_EPOCH": 89112, "BSTAR": 0.00043185446, "MEAN_MOTION_DOT": 2.042e-05, "MEAN_MOTION_DDOT": 0}, "tle": {"line1": "1 34409U 93036RA  25341.19266120  .00002042  00000+0  43185-3 0  9994", "line2": "2 34409  74.0628 317.3728 0079607  33.2017 342.1701 14.58005767891127"}}, "geometry": {"type": "Point", "coordinates": [-46.619489042322876, -8.911698901044357]}}, {"type": "Feature", "properties": {"norad_id": 34410, "name": "COSMOS 2251 DEB", "group": "cosmos-2251-debris", "lat": 60.40701089567635, "lon": -57.11766536411214, "alt_km": 495.3652092245793, "timestamp": "2025-12-07T22:37:43.476223+00:00", "meta": {"OBJECT_NAME": "COSMOS 2251 DEB", "OBJECT_ID": "1993-036RB", "EPOCH": "2025-12-06T16:37:24.236832", "MEAN_MOTION": 15.18051629, "ECCENTRICITY": 0.0020885, "INCLINATION": 73.74, "RA_OF_ASC_NODE": 274.616, "ARG_OF_PERICENTER": 116.6169, "MEAN_ANOMALY": 318.5036, "EPHEMERIS_TYPE": 0, "CLASSIFICATION_TYPE": "U", "NORAD_CAT_ID": 34410, "ELEMENT_SET_NO": 999, "REV_AT_EPOCH": 89682, "BSTAR": 0.0041987337, "MEAN_MOTION_DOT": 0.00087001, "MEAN_MOTION_DDOT": 0}, "tle": {"line1": "1 34410U 93036RB  25340.69264163  .00087001  00000+0  41987-2 0  9990", "line2": "2 34410  73.7400 274.6160 0020885 116.6169 318.5036 15.18051629896821"}}, "geometry": {"type": "Point", "coordinates": [-57.11766536411214, 60.40701089567635]}}, {"type": "Feature", "properties": {"norad_id": 34412, "name": "COSMOS 2251 DEB", "group": "cosmos-2251-debris", "lat": 26.887789670887585, "lon": -17.975092231420806, "alt_km": 633.3951472757453, "timestamp": "2025-12-07T22:37:43.476234+00:00", "meta": {"OBJECT_NAME": "COSMOS 2251 DEB", "OBJECT_ID": "1993-036RD", "EPOCH": "2025-12-07T00:55:56.907840", "MEAN_MOTION": 14.47045227, "ECCENTRICITY": 0.01870874, "INCLINATION": 73.9484, "RA_OF_ASC_NODE": 335.3295, "ARG_OF_PERICENTER": 71.7563, "MEAN_ANOMALY": 290.3855, "EPHEMERIS_TYPE": 0, "CLASSIFICATION_TYPE": "U", "NORAD_CAT_ID": 34412, "ELEMENT_SET_NO": 999, "REV_AT_EPOCH": 87568, "BSTAR": 0.0015748183, "MEAN_MOTION_DOT": 7.117e-05, "MEAN_MOTION_DDOT": 0}, "tle": {"line1": "1 34412U 93036RD  25341.03885310  .00007117  00000+0  15748-2 0  9990", "line2": "2 34412  73.9484 335.3295 0187087  71.7563 290.3855 14.47045227875683"}}, "geometry": {"type": "Point", "coordinates": [-17.975092231420806, 26.887789670887585]}}, {"type": "Feature", "properties": {"norad_id": 34413, "name": "COSMOS 2251 DEB", "group": "cosmos-2251-debris", "lat": 61.98928298214422, "lon": 61.02596752854253, "alt_km": 822.9926151645477, "timestamp": "2025-12-07T22:37:43.476245+00:00", "meta": {"OBJECT_NAME": "COSMOS 2251 DEB", "OBJECT_ID": "1993-036RE", "EPOCH": "2025-12-07T02:00:41.713632", "MEAN_MOTION": 14.29025214, "ECCENTRICITY": 0.00907911, "INCLINATION": 74.0324, "RA_OF_ASC_NODE": 275.1492, "ARG_OF_PERICENTER": 352.6794, "MEAN_ANOMALY": 22.0934, "EPHEMERIS_TYPE": 0, "CLASSIFICATION_TYPE": "U", "NORAD_CAT_ID": 34413, "ELEMENT_SET_NO": 999, "REV_AT_EPOCH": 87050, "BSTAR": 0.0028888222, "MEAN_MOTION_DOT": 7.626e-05, "MEAN_MOTION_DDOT": 0}, "tle": {"line1": "1 34413U 93036RE  25341.08381613  .00007626  00000+0  28888-2 0  9997", "line2": "2 34413  74.0324 275.1492 0090791 352.6794  22.0934 14.29025214870509"}}, "geometry": {"type": "Point", "coordinates": [61.02596752854253, 61.98928298214422]}}, {"type": "Feature", "properties": {"norad_id": 34420, "name": "COSMOS 2251 DEB", "group": "cosmos-2251-debris", "lat": -63.8700457607852, "lon": -31.055100718022334, "alt_km": 600.1911544944815, "timestamp": "2025-12-07T22:37:43.476255+00:00", "meta": {"OBJECT_NAME": "COSMOS 2251 DEB", "OBJECT_ID": "1993-036RM", "EPOCH": "2025-12-07T03:45:35.879328", "MEAN_MOTION": 14.68270809, "ECCENTRICITY": 0.01068626, "INCLINATION": 74.0337, "RA_OF_ASC_NODE": 114.7581, "ARG_OF_PERICENTER": 237.1854, "MEAN_ANOMALY": 177.5749, "EPHEMERIS_TYPE": 0, "CLASSIFICATION_TYPE": "U", "NORAD_CAT_ID": 34420, "ELEMENT_SET_NO": 999, "REV_AT_EPOCH": 89688, "BSTAR": 0.00041987889, "MEAN_MOTION_DOT": 2.605e-05, "MEAN_MOTION_DDOT": 0}, "tle": {"line1": "1 34420U 93036RM  25341.15666527  .00002605  00000+0  41988-3 0  9992", "line2": "2 34420  74.0337 114.7581 0106862 237.1854 177.5749 14.68270809896883"}}, "geometry": {"type": "Point", "coordinates": [-31.055100718022334, -63.8700457607852]}}, {"type": "Feature", "properties": {"norad_id": 34425, "name": "COSMOS 2251 DEB", "group": "cosmos-2251-debris", "lat": 72.34034738982564, "lon": 127.8762773797137, "alt_km": 684.9246493862711, "timestamp": "2025-12-07T22:37:43.476266+00:00", "meta": {"OBJECT_NAME": "COSMOS 2251 DEB", "OBJECT_ID": "1993-036RS", "EPOCH": "2025-12-07T04:11:16.448352", "MEAN_MOTION": 14.62078035, "ECCENTRICITY": 0.00252089, "INCLINATION": 74.0206, "RA_OF_ASC_NODE": 65.1828, "ARG_OF_PERICENTER": 193.188, "MEAN_ANOMALY": 166.8631, "EPHEMERIS_TYPE": 0, "CLASSIFICATION_TYPE": "U", "NORAD_CAT_ID": 34425, "ELEMENT_SET_NO": 999, "REV_AT_EPOCH": 88659, "BSTAR": 0.0010312936, "MEAN_MOTION_DOT": 5.177e-05, "MEAN_MOTION_DDOT": 0}, "tle": {"line1": "1 34425U 93036RS  25341.17449593  .00005177  00000+0  10313-2 0  9995", "line2": "2 34425  74.0206  65.1828 0025208 193.1880 166.8631 14.62078035886599"}}, "geometry": {"type": "Point", "coordinates": [127.8762773797137, 72.34034738982564]}}, {"type": "Feature", "properties": {"norad_id": 34429, "name": "COSMOS 2251 DEB", "group": "cosmos-2251-debris", "lat": -47.573269970928834, "lon": 16.760573299563188, "alt_km": 458.70340645219494, "timestamp": "2025-12-07T22:37:43.476277+00:00", "meta": {"OBJECT_NAME": "COSMOS 2251 DEB", "OBJECT_ID": "1993-036RW", "EPOCH": "2025-12-07T00:20:48.101568", "MEAN_MOTION": 15.38739723, "ECCENTRICITY": 0.00058591, "INCLINATION": 73.9707, "RA_OF_ASC_NODE": 180.4364, "ARG_OF_PERICENTER": 25.1654, "MEAN_ANOMALY": 103.5971, "EPHEMERIS_TYPE": 0, "CLASSIFICATION_TYPE": "U", "NORAD_CAT_ID": 34429, "ELEMENT_SET_NO": 999, "REV_AT_EPOCH": 89360, "BSTAR": 0.0056865782, "MEAN_MOTION_DOT": 0.0022445, "MEAN_MOTION_DDOT": 0}, "tle": {"line1": "1 34429U 93036RW  25341.01444562  .00224450  00000+0  56866-2 0  9993", "line2": "2 34429  73.9707 180.4364 0005859  25.1654 103.5971 15.38739723893603"}}, "geometry": {"type": "Point", "coordinates": [16.760573299563188, -47.573269970928834]}}, {"type": "Feature", "properties": {"norad_id": 34430, "name": "COSMOS 2251 DEB", "group": "cosmos-2251-debris", "lat": -65.88644764665963, "lon": 171.91797305242446, "alt_km": 794.8857625270139, "timestamp": "2025-12-07T22:37:43.476287+00:00", "meta": {"OBJECT_NAME": "COSMOS 2251 DEB", "OBJECT_ID": "1993-036RX", "EPOCH": "2025-12-07T06:27:08.070624", "MEAN_MOTION": 14.39605586, "ECCENTRICITY": 0.00600784, "INCLINATION": 74.0521, "RA_OF_ASC_NODE": 313.4558, "ARG_OF_PERICENTER": 24.4481, "MEAN_ANOMALY": 335.9501, "EPHEMERIS_TYPE": 0, "CLASSIFICATION_TYPE": "U", "NORAD_CAT_ID": 34430, "ELEMENT_SET_NO": 999, "REV_AT_EPOCH": 87876, "BSTAR": 0.00090298355, "MEAN_MOTION_DOT": 2.856e-05, "MEAN_MOTION_DDOT": 0}, "tle": {"line1": "1 34430U 93036RX  25341.26884341  .00002856  00000+0  90298-3 0  9997", "line2": "2 34430  74.0521 313.4558 0060078  24.4481 335.9501 14.39605586878767"}}, "geometry": {"type": "Point", "coordinates": [171.91797305242446, -65.88644764665963]}}, {"type": "Feature", "properties": {"norad_id": 34431, "name": "COSMOS 2251 DEB", "group": "cosmos-2251-debris", "lat": -17.93333330686775, "lon": 178.58092839655188, "alt_km": 849.0100632866106, "timestamp": "2025-12-07T22:37:43.476297+00:00", "meta": {"OBJECT_NAME": "COSMOS 2251 DEB", "OBJECT_ID": "1993-036RY", "EPOCH": "2025-12-06T23:11:25.841184", "MEAN_MOTION": 14.28747235, "ECCENTRICITY": 0.00685268, "INCLINATION": 74.0746, "RA_OF_ASC_NODE": 185.6499, "ARG_OF_PERICENTER": 172.9199, "MEAN_ANOMALY": 187.2936, "EPHEMERIS_TYPE": 0, "CLASSIFICATION_TYPE": "U", "NORAD_CAT_ID": 34431, "ELEMENT_SET_NO": 999, "REV_AT_EPOCH": 87060, "BSTAR": 0.00098345369, "MEAN_MOTION_DOT": 2.514e-05, "MEAN_MOTION_DDOT": 0}, "tle": {"line1": "1 34431U 93036RY  25340.96627131  .00002514  00000+0  98345-3 0  9998", "line2": "2 34431  74.0746 185.6499 0068526 172.9199 187.2936 14.28747235870602"}}, "geometry": {"type": "Point", "coordinates": [178.58092839655188, -17.93333330686775]}}]}